{"type": "FeatureCollection", "features": [ {"type": "Feature", "properties": {"norad_id": 58662, "name": "TIANMU-1 21", "group": "weather", "lat": 66.58364569425007, "lon": -68.59100709669478, "alt_km": 469.37048765737654, "timestamp": "2025-12-06T11:28:10.672646+00:00", "meta": {"OBJECT_NAME": "TIANMU-1 21", "OBJECT_ID": "2023-208C", "EPOCH": "2025-12-05T22:26:05.461152", "MEAN_MOTION": 15.31329872, "ECCENTRICITY": 0.00059265, "INCLINATION": 97.4383, "RA_OF_ASC_NODE": 93.3059, "ARG_OF_PERICENTER": 288.7275, "MEAN_ANOMALY": 71.3322, "EPHEMERIS_TYPE": 0, "CLASSIFICATION_TYPE": "U", "NORAD_CAT_ID": 58662, "ELEMENT_SET_NO": 999, "REV_AT_EPOCH": 10795, "BSTAR": 0.00055072085, "MEAN_MOTION_DOT": 0.00016612, "MEAN_MOTION_DDOT": 0}, "tle": {"line1": "1 58662U 23208C   25339.93478543  .00016612  00000+0  55072-3 0  9994", "line2": "2 58662  97.4383  93.3059 0005926 288.7275  71.3322 15.31329872107954"}}, "geometry": {"type": "Point", "coordinates": [-68.59100709669478, 66.58364569425007]}}, {"type": "Feature", "properties": {"norad_id": 58663, "name": "TIANMU-1 22", "group": "weather", "lat": 56.342765893937376, "lon": -77.09241732809289, "alt_km": 480.078519921065, "timestamp": "2025-12-06T11:28:10.672656+00:00", "meta": {"OBJECT_NAME": "TIANMU-1 22", "OBJECT_ID": "2023-208D", "EPOCH": "2025-12-05T22:21:19.331136", "MEAN_MOTION": 15.27427736, "ECCENTRICITY": 0.00029598, "INCLINATION": 97.4391, "RA_OF_ASC_NODE": 91.0456, "ARG_OF_PERICENTER": 319.6838, "MEAN_ANOMALY": 40.4181, "EPHEMERIS_TYPE": 0, "CLASSIFICATION_TYPE": "U", "NORAD_CAT_ID": 58663, "ELEMENT_SET_NO": 999, "REV_AT_EPOCH": 10779, "BSTAR": 0.00049930446, "MEAN_MOTION_DOT": 0.00013342, "MEAN_MOTION_DDOT": 0}, "tle": {"line1": "1 58663U 23208D   25339.93147374  .00013342  00000+0  49930-3 0  9993", "line2": "2 58663  97.4391  91.0456 0002959 319.6838  40.4181 15.27427736107797"}}, "geometry": {"type": "Point", "coordinates": [-77.09241732809289, 56.342765893937376]}}, {"type": "Feature", "properties": {"norad_id": 58700, "name": "TIANMU-1 15", "group": "weather", "lat": -41.97546395173338, "lon": 168.7420555142022, "alt_km": 494.98629389065354, "timestamp": "2025-12-06T11:28:10.672666+00:00", "meta": {"OBJECT_NAME": "TIANMU-1 15", "OBJECT_ID": "2024-004A", "EPOCH": "2025-12-05T23:03:11.479392", "MEAN_MOTION": 15.24542086, "ECCENTRICITY": 0.0005585, "INCLINATION": 97.4624, "RA_OF_ASC_NODE": 161.4547, "ARG_OF_PERICENTER": 326.3713, "MEAN_ANOMALY": 33.717, "EPHEMERIS_TYPE": 0, "CLASSIFICATION_TYPE": "U", "NORAD_CAT_ID": 58700, "ELEMENT_SET_NO": 999, "REV_AT_EPOCH": 10631, "BSTAR": 0.00041631215, "MEAN_MOTION_DOT": 0.00010184, "MEAN_MOTION_DDOT": 0}, "tle": {"line1": "1 58700U 24004A   25339.96054953  .00010184  00000+0  41631-3 0  9994", "line2": "2 58700  97.4624 161.4547 0005585 326.3713  33.7170 15.24542086106319"}}, "geometry": {"type": "Point", "coordinates": [168.7420555142022, -41.97546395173338]}}, {"type": "Feature", "properties": {"norad_id": 58701, "name": "TIANMU-1 16", "group": "weather", "lat": 44.57609909474342, "lon": 153.9515926154732, "alt_km": 488.68400724465573, "timestamp": "2025-12-06T11:28:10.672676+00:00", "meta": {"OBJECT_NAME": "TIANMU-1 16", "OBJECT_ID": "2024-004B", "EPOCH": "2025-12-05T22:40:07.286592", "MEAN_MOTION": 15.24293345, "ECCENTRICITY": 0.00048987, "INCLINATION": 97.4562, "RA_OF_ASC_NODE": 160.8353, "ARG_OF_PERICENTER": 324.8459, "MEAN_ANOMALY": 35.2454, "EPHEMERIS_TYPE": 0, "CLASSIFICATION_TYPE": "U", "NORAD_CAT_ID": 58701, "ELEMENT_SET_NO": 999, "REV_AT_EPOCH": 10631, "BSTAR": 0.00042189675, "MEAN_MOTION_DOT": 0.00010245, "MEAN_MOTION_DDOT": 0}, "tle": {"line1": "1 58701U 24004B   25339.94452878  .00010245  00000+0  42190-3 0  9990", "line2": "2 58701  97.4562 160.8353 0004898 324.8459  35.2454 15.24293345106318"}}, "geometry": {"type": "Point", "coordinates": [153.9515926154732, 44.57609909474342]}}, {"type": "Feature", "properties": {"norad_id": 58702, "name": "TIANMU-1 17", "group": "weather", "lat": 50.73915842292843, "lon": -9.00246315912062, "alt_km": 490.8274308796381, "timestamp": "2025-12-06T11:28:10.672686+00:00", "meta": {"OBJECT_NAME": "TIANMU-1 17", "OBJECT_ID": "2024-004C", "EPOCH": "2025-12-05T22:18:13.490784", "MEAN_MOTION": 15.24338425, "ECCENTRICITY": 0.00041434, "INCLINATION": 97.4597, "RA_OF_ASC_NODE": 161.2267, "ARG_OF_PERICENTER": 328.6832, "MEAN_ANOMALY": 31.4158, "EPHEMERIS_TYPE": 0, "CLASSIFICATION_TYPE": "U", "NORAD_CAT_ID": 58702, "ELEMENT_SET_NO": 999, "REV_AT_EPOCH": 10630, "BSTAR": 0.00044989999, "MEAN_MOTION_DOT": 0.00010944, "MEAN_MOTION_DDOT": 0}, "tle": {"line1": "1 58702U 24004C   25339.92932281  .00010944  00000+0  44990-3 0  9996", "line2": "2 58702  97.4597 161.2267 0004143 328.6832  31.4158 15.24338425106303"}}, "geometry": {"type": "Point", "coordinates": [-9.00246315912062, 50.73915842292843]}}, {"type": "Feature", "properties": {"norad_id": 58703, "name": "TIANMU-1 18", "group": "weather", "lat": -39.99111428911841, "lon": -24.344981335304624, "alt_km": 500.1039506084999, "timestamp": "2025-12-06T11:28:10.672696+00:00", "meta": {"OBJECT_NAME": "TIANMU-1 18", "OBJECT_ID": "2024-004D", "EPOCH": "2025-12-05T21:54:07.509024", "MEAN_MOTION": 15.24329398, "ECCENTRICITY": 0.00034846, "INCLINATION": 97.4615, "RA_OF_ASC_NODE": 161.404, "ARG_OF_PERICENTER": 330.75, "MEAN_ANOMALY": 29.3542, "EPHEMERIS_TYPE": 0, "CLASSIFICATION_TYPE": "U", "NORAD_CAT_ID": 58703, "ELEMENT_SET_NO": 999, "REV_AT_EPOCH": 10630, "BSTAR": 0.00042471343, "MEAN_MOTION_DOT": 0.00010323, "MEAN_MOTION_DDOT": 0}, "tle": {"line1": "1 58703U 24004D   25339.91258691  .00010323  00000+0  42471-3 0  9995", "line2": "2 58703  97.4615 161.4040 0003484 330.7500  29.3542 15.24329398106301"}}, "geometry": {"type": "Point", "coordinates": [-24.344981335304624, -39.99111428911841]}}, {"type": "Feature", "properties": {"norad_id": 58990, "name": "INSAT-3DS", "group": "weather", "lat": -0.011946826716875759, "lon": -30.338469381925297, "alt_km": 35783.77465815898, "timestamp": "2025-12-06T11:28:10.672707+00:00", "meta": {"OBJECT_NAME": "INSAT-3DS", "OBJECT_ID": "2024-033A", "EPOCH": "2025-12-05T22:31:38.798400", "MEAN_MOTION": 1.0026967, "ECCENTRICITY": 0.00017512, "INCLINATION": 0.0081, "RA_OF_ASC_NODE": 11.9149, "ARG_OF_PERICENTER": 251.018, "MEAN_ANOMALY": 232.0619, "EPHEMERIS_TYPE": 0, "CLASSIFICATION_TYPE": "U", "NORAD_CAT_ID": 58990, "ELEMENT_SET_NO": 999, "REV_AT_EPOCH": 4513, "BSTAR": 0, "MEAN_MOTION_DOT": -1.47e-06, "MEAN_MOTION_DDOT": 0}, "tle": {"line1": "1 58990U 24033A   25339.93864350 -.00000147  00000+0  00000+0 0  9994", "line2": "2 58990   0.0081  11.9149 0001751 251.0180 232.0619  1.00269670 45135"}}, "geometry": {"type": "Point", "coordinates": [-30.338469381925297, -0.011946826716875759]}}, {"type": "Feature", "properties": {"norad_id": 59051, "name": "METEOR-M2 4", "group": "weather", "lat": 9.168277861130434, "lon": 118.89721276803404, "alt_km": 823.7128323448933, "timestamp": "2025-12-06T11:28:10.672737+00:00", "meta": {"OBJECT_NAME": "METEOR-M2 4", "OBJECT_ID": "2024-039A", "EPOCH": "2025-12-05T22:51:09.652320", "MEAN_MOTION": 14.22399605, "ECCENTRICITY": 0.00074161, "INCLINATION": 98.6757, "RA_OF_ASC_NODE": 296.9678, "ARG_OF_PERICENTER": 17.6659, "MEAN_ANOMALY": 342.4776, "EPHEMERIS_TYPE": 0, "CLASSIFICATION_TYPE": "U", "NORAD_CAT_ID": 59051, "ELEMENT_SET_NO": 999, "REV_AT_EPOCH": 9179, "BSTAR": 5.9379515e-05, "MEAN_MOTION_DOT": 8.9e-07, "MEAN_MOTION_DDOT": 0}, "tle": {"line1": "1 59051U 24039A   25339.95219505  .00000089  00000+0  59380-4 0  9991", "line2": "2 59051  98.6757 296.9678 0007416  17.6659 342.4776 14.22399605 91793"}}, "geometry": {"type": "Point", "coordinates": [118.89721276803404, 9.168277861130434]}}, {"type": "Feature", "properties": {"norad_id": 60133, "name": "GOES 19", "group": "weather", "lat": 0.002202722054853134, "lon": 172.35139757553443, "alt_km": 35790.213699212596, "timestamp": "2025-12-06T11:28:10.672752+00:00", "meta": {"OBJECT_NAME": "GOES 19", "OBJECT_ID": "2024-119A", "EPOCH": "2025-12-05T21:53:54.631104", "MEAN_MOTION": 1.00270239, "ECCENTRICITY": 0.00014349, "INCLINATION": 0.0187, "RA_OF_ASC_NODE": 146.7323, "ARG_OF_PERICENTER": 152.9768, "MEAN_ANOMALY": 28.5465, "EPHEMERIS_TYPE": 0, "CLASSIFICATION_TYPE": "U", "NORAD_CAT_ID": 60133, "ELEMENT_SET_NO": 999, "REV_AT_EPOCH": 502, "BSTAR": 0, "MEAN_MOTION_DOT": -2.39e-06, "MEAN_MOTION_DDOT": 0}, "tle": {"line1": "1 60133U 24119A   25339.91243786 -.00000239  00000+0  00000+0 0  9995", "line2": "2 60133   0.0187 146.7323 0001434 152.9768  28.5465  1.00270239  5028"}}, "geometry": {"type": "Point", "coordinates": [172.35139757553443, 0.002202722054853134]}}, {"type": "Feature", "properties": {"norad_id": 65815, "name": "FENGYUN 3H", "group": "weather", "lat": 72.08872329370516, "lon": 128.32909060878637, "alt_km": 818.3405352509626, "timestamp": "2025-12-06T11:28:10.672763+00:00", "meta": {"OBJECT_NAME": "FENGYUN 3H", "OBJECT_ID": "2025-219A", "EPOCH": "2025-12-05T21:26:38.175360", "MEAN_MOTION": 14.19901681, "ECCENTRICITY": 6.133e-05, "INCLINATION": 98.6574, "RA_OF_ASC_NODE": 279.6329, "ARG_OF_PERICENTER": 76.1673, "MEAN_ANOMALY": 283.9572, "EPHEMERIS_TYPE": 0, "CLASSIFICATION_TYPE": "U", "NORAD_CAT_ID": 65815, "ELEMENT_SET_NO": 999, "REV_AT_EPOCH": 995, "BSTAR": 0.00011703428, "MEAN_MOTION_DOT": 2.05e-06, "MEAN_MOTION_DDOT": 0}, "tle": {"line1": "1 65815U 25219A   25339.89349740  .00000205  00000+0  11703-3 0  9991", "line2": "2 65815  98.6574 279.6329 0000613  76.1673 283.9572 14.19901681  9953"}}, "geometry": {"type": "Point", "coordinates": [128.32909060878637, 72.08872329370516]}}]}